ONEWEB-0228             
1 48780U 21045P   24217.92449898  .00000043  00000+0  80604-4 0  9996
2 48780  87.9019  34.7451 0001686  87.3986 272.7337 13.15072243154750
